SIRION PATHFINDER-2     
1 43759U 18099B   26168.11568701  .00003265  00000+0  18059-3 0  9998
2 43759  97.4249 217.1748 0007203 305.6324  54.4237 15.14547360412615
CORVUS BC4              
1 43767U 18099K   26168.05600138  .00003821  00000+0  22299-3 0  9990
2 43767  97.4063 211.0401 0008268  13.6143 346.5309 15.12495924412389
M2 PATHFINDER           
1 45727U 20037E   26168.11336691  .00001351  00000+0  10048-3 0  9995
2 45727  97.8147 359.3444 0012505 146.3261 213.8762 15.04675796325482
NETSAT-4                
1 46504U 20068U   26167.99517375  .00014852  00000+0  32924-3 0  9995
2 46504  97.8600 176.2205 0003869 339.1493  20.9595 15.43860202315743
NETSAT-3                
1 46505U 20068V   26168.00130257  .00016089  00000+0  37085-3 0  9996
2 46505  97.8647 174.4436 0004227   2.4959 357.6308 15.42674184315650
NETSAT-1                
1 46506U 20068W   26167.93981441  .00010990  00000+0  32980-3 0  9991
2 46506  97.8742 168.7115 0005062  33.4100 326.7460 15.34639447315264
NETSAT-2                
1 46507U 20068X   26167.97076992  .00020150  00000+0  41464-3 0  9998
2 46507  97.8609 176.0879 0003463  27.8627 332.2805 15.45990487315700
GREENCUBE (IO-117)      
1 53109U 22080E   26164.29338770 -.00000003  00000+0  00000+0 0  9990
2 53109  70.1444 299.5995 0008910 290.4576  69.5127  6.42583230 91811
SITRO-AIS 5 (KATYS)     
1 57176U 23091L   26168.13541188  .00009863  00000+0  34714-3 0  9992
2 57176  97.5059 232.0342 0012771 103.5483 256.7180 15.29456167164333
SITRO-AIS 6 (CHIRKIN)   
1 57192U 23091AC  26168.17981523  .00008157  00000+0  31995-3 0  9998
2 57192  97.5065 231.1982 0013109 106.5937 253.6741 15.25934777164288
SITRO-AIS 8 (ANOKHIN)   
1 57193U 23091AD  26168.15252862  .00011202  00000+0  36271-3 0  9991
2 57193  97.5055 233.6399 0011802 100.1349 260.1224 15.32135683164446
SITRO-AIS 7 (FARTUSHNIY)
1 57194U 23091AE  26168.18296272  .00008100  00000+0  32073-3 0  9997
2 57194  97.5063 231.0265 0012952 107.3755 252.8900 15.25622957164274
SITRO-AIS 10 (BURDAEV)  
1 57199U 23091AK  26168.18422186  .00016062  00000+0  42271-3 0  9994
2 57199  97.5081 238.7263 0007503  80.5746 279.6347 15.38612377164764
SITRO-AIS 9 (SHCHUKIN)  
1 57201U 23091AM  26168.14556439  .00015530  00000+0  41537-3 0  9996
2 57201  97.5079 238.4167 0007783  80.6027 279.6097 15.38118895164744
SITRO-AIS 12 (SMIRENNIY)
1 57204U 23091AQ  26168.13619375  .00015659  00000+0  41488-3 0  9994
2 57204  97.5092 238.8741 0007314  75.8122 284.3935 15.38412134164765
SITRO-AIS 11 (SHEFFER)  
1 57208U 23091AU  26168.14962252  .00015741  00000+0  41136-3 0  9996
2 57208  97.5090 239.1345 0007182  75.6067 284.5974 15.38836293164783
SITRO-AIS 25            
1 59066U 24039R   26168.17517399  .00002271  00000+0  17897-3 0  9995
2 59066  95.3906 235.0844 0143462 328.7907  30.4856 14.93513506124721
SITRO-AIS 26            
1 59067U 24039S   26168.17654520  .00002191  00000+0  17357-3 0  9996
2 59067  95.3907 234.9829 0143816 329.3755  29.9131 14.93309303124711
SITRO-AIS 27            
1 59068U 24039T   26168.21378270  .00002099  00000+0  16495-3 0  9996
2 59068  95.3914 235.2802 0142763 327.8906  31.3681 14.93731266124743
SITRO-AIS 28            
1 59071U 24039U   26168.19122722  .00002560  00000+0  20044-3 0  9994
2 59071  95.3911 235.3119 0142660 327.7772  31.4794 14.93763734124743
GRBBETA                 
1 60237U 24128C   26167.68909538  .00002596  00000+0  18568-3 0  9997
2 60237  61.9884 218.0139 0040716 134.5575 225.8855 15.06636880106193
OOV-CUBE (TUBSAT-30)    
1 60240U 24128F   26167.65623862  .00001551  00000+0  12883-3 0  9995
2 60240  61.9941 227.4248 0044650 133.6062 226.8748 15.02772513106033
ROBUSTA-3A (MEDITERRAN*)
1 60243U 24128J   26167.60567462  .00004187  00000+0  25309-3 0  9991
2 60243  61.9848 210.3011 0041447 127.8993 232.5862 15.11671493106339
LASARSAT                
1 62391U 24247Q   26167.97623209  .00026221  00000+0  52389-3 0  9992
2 62391  44.9742 263.4006 0008180 330.0323  30.0098 15.46364825 83280
CROCUBE                 
1 62394U 24247T   26165.58698051  .00034757  00000+0  65094-3 0  9997
2 62394  44.9722 274.1999 0008187 320.7516  39.2780 15.48102542 82947
FORESAIL-1 PRIME        
1 66778U 25276DS  26167.99656515  .00004149  00000+0  20320-3 0  9991
2 66778  97.4201 241.2708 0003952 103.8378 256.3296 15.18701638 30378
KNACKSAT-2              
1 67683U 98067XZ  26167.64582772  .00039403  00000+0  48230-3 0  9991
2 67683  51.6312 297.1999 0009189 212.7793 147.2631 15.59934910 20196
