OBJECT_NAME,OBJECT_ID,EPOCH,MEAN_MOTION,ECCENTRICITY,INCLINATION,RA_OF_ASC_NODE,ARG_OF_PERICENTER,MEAN_ANOMALY,EPHEMERIS_TYPE,CLASSIFICATION_TYPE,NORAD_CAT_ID,ELEMENT_SET_NO,REV_AT_EPOCH,BSTAR,MEAN_MOTION_DOT,MEAN_MOTION_DDOT
SIRION PATHFINDER-2,2018-099B,2026-06-17T02:46:35.357664,15.14547360,.0007203,97.4249,217.1748,305.6324,54.4237,0,U,43759,999,41261,.18059E-3,.3265E-4,0
CORVUS BC4,2018-099K,2026-06-17T01:20:38.519232,15.12495924,.0008268,97.4063,211.0401,13.6143,346.5309,0,U,43767,999,41238,.22299E-3,.3821E-4,0
M2 PATHFINDER,2020-037E,2026-06-17T02:43:14.901024,15.04675796,.0012505,97.8147,359.3444,146.3261,213.8762,0,U,45727,999,32548,.10048E-3,.1351E-4,0
NETSAT-4,2020-068U,2026-06-16T23:53:03.012000,15.43860202,.0003869,97.8600,176.2205,339.1493,20.9595,0,U,46504,999,31574,.32924E-3,.14852E-3,0
NETSAT-3,2020-068V,2026-06-17T00:01:52.542048,15.42674184,.0004227,97.8647,174.4436,2.4959,357.6308,0,U,46505,999,31565,.37085E-3,.16089E-3,0
NETSAT-1,2020-068W,2026-06-16T22:33:19.965024,15.34639447,.0005062,97.8742,168.7115,33.4100,326.7460,0,U,46506,999,31526,.3298E-3,.1099E-3,0
NETSAT-2,2020-068X,2026-06-16T23:17:54.521088,15.45990487,.0003463,97.8609,176.0879,27.8627,332.2805,0,U,46507,999,31570,.41464E-3,.2015E-3,0
GREENCUBE (IO-117),2022-080E,2026-06-13T07:02:28.697280,6.42583230,.00089108,70.1444,299.5995,290.4576,69.5127,0,U,53109,999,9181,0,-.3E-7,0
SITRO-AIS 5 (KATYS),2023-091L,2026-06-17T03:14:59.586432,15.29456167,.0012771,97.5059,232.0342,103.5483,256.7180,0,U,57176,999,16433,.34714E-3,.9863E-4,0
SITRO-AIS 6 (CHIRKIN),2023-091AC,2026-06-17T04:18:56.035872,15.25934777,.0013109,97.5065,231.1982,106.5937,253.6741,0,U,57192,999,16428,.31995E-3,.8157E-4,0
SITRO-AIS 8 (ANOKHIN),2023-091AD,2026-06-17T03:39:38.472768,15.32135683,.0011802,97.5055,233.6399,100.1349,260.1224,0,U,57193,999,16444,.36271E-3,.11202E-3,0
SITRO-AIS 7 (FARTUSHNIY),2023-091AE,2026-06-17T04:23:27.979008,15.25622957,.0012952,97.5063,231.0265,107.3755,252.8900,0,U,57194,999,16427,.32073E-3,.81E-4,0
SITRO-AIS 10 (BURDAEV),2023-091AK,2026-06-17T04:25:16.768704,15.38612377,.0007503,97.5081,238.7263,80.5746,279.6347,0,U,57199,999,16476,.42271E-3,.16062E-3,0
SITRO-AIS 9 (SHCHUKIN),2023-091AM,2026-06-17T03:29:36.763296,15.38118895,.0007783,97.5079,238.4167,80.6027,279.6097,0,U,57201,999,16474,.41537E-3,.1553E-3,0
SITRO-AIS 12 (SMIRENNIY),2023-091AQ,2026-06-17T03:16:07.140000,15.38412134,.0007314,97.5092,238.8741,75.8122,284.3935,0,U,57204,999,16476,.41488E-3,.15659E-3,0
SITRO-AIS 11 (SHEFFER),2023-091AU,2026-06-17T03:35:27.385728,15.38836293,.0007182,97.5090,239.1345,75.6067,284.5974,0,U,57208,999,16478,.41136E-3,.15741E-3,0
SITRO-AIS 25,2024-039R,2026-06-17T04:12:15.032736,14.93513506,.0143462,95.3906,235.0844,328.7907,30.4856,0,U,59066,999,12472,.17897E-3,.2271E-4,0
SITRO-AIS 26,2024-039S,2026-06-17T04:14:13.505280,14.93309303,.0143816,95.3907,234.9829,329.3755,29.9131,0,U,59067,999,12471,.17357E-3,.2191E-4,0
SITRO-AIS 27,2024-039T,2026-06-17T05:07:50.825280,14.93731266,.0142763,95.3914,235.2802,327.8906,31.3681,0,U,59068,999,12474,.16495E-3,.2099E-4,0
SITRO-AIS 28,2024-039U,2026-06-17T04:35:22.031808,14.93763734,.014266,95.3911,235.3119,327.7772,31.4794,0,U,59071,999,12474,.20044E-3,.256E-4,0
GRBBETA,2024-128C,2026-06-16T16:32:17.840832,15.06636880,.0040716,61.9884,218.0139,134.5575,225.8855,0,U,60237,999,10619,.18568E-3,.2596E-4,0
OOV-CUBE (TUBSAT-30),2024-128F,2026-06-16T15:44:59.016768,15.02772513,.004465,61.9941,227.4248,133.6062,226.8748,0,U,60240,999,10603,.12883E-3,.1551E-4,0
ROBUSTA-3A (MEDITERRANEE),2024-128J,2026-06-16T14:32:10.287168,15.11671493,.0041447,61.9848,210.3011,127.8993,232.5862,0,U,60243,999,10633,.25309E-3,.4187E-4,0
LASARSAT,2024-247Q,2026-06-16T23:25:46.452576,15.46364825,.000818,44.9742,263.4006,330.0323,30.0098,0,U,62391,999,8328,.52389E-3,.26221E-3,0
CROCUBE,2024-247T,2026-06-14T14:05:15.116064,15.48102542,.0008187,44.9722,274.1999,320.7516,39.2780,0,U,62394,999,8294,.65094E-3,.34757E-3,0
FORESAIL-1 PRIME,2025-276DS,2026-06-16T23:55:03.228960,15.18701638,.0003952,97.4201,241.2708,103.8378,256.3296,0,U,66778,999,3037,.2032E-3,.4149E-4,0
KNACKSAT-2,1998-067XZ,2026-06-16T15:29:59.515008,15.59934910,.0009189,51.6312,297.1999,212.7793,147.2631,0,U,67683,999,2019,.4823E-3,.39403E-3,0
